{"type": "FeatureCollection", "features": [ {"type": "Feature", "properties": {"norad_id": 42738, "name": "QZS-2 (QZSS/PRN 194)", "group": "gnss", "lat": -33.707786495006744, "lon": -167.5823093391433, "alt_km": 32985.58588833103, "timestamp": "2025-12-19T20:43:00.328504+00:00", "meta": {"OBJECT_NAME": "QZS-2 (QZSS/PRN 194)", "OBJECT_ID": "2017-028A", "EPOCH": "2025-12-18T13:55:30.556128", "MEAN_MOTION": 1.00281517, "ECCENTRICITY": 0.07566042, "INCLINATION": 39.7045, "RA_OF_ASC_NODE": 245.7969, "ARG_OF_PERICENTER": 269.5406, "MEAN_ANOMALY": 282.9842, "EPHEMERIS_TYPE": 0, "CLASSIFICATION_TYPE": "U", "NORAD_CAT_ID": 42738, "ELEMENT_SET_NO": 999, "REV_AT_EPOCH": 581, "BSTAR": 0, "MEAN_MOTION_DOT": -1.25e-06, "MEAN_MOTION_DDOT": 0}, "tle": {"line1": "1 42738U 17028A   25352.58021477 -.00000125  00000+0  00000+0 0  9990", "line2": "2 42738  39.7045 245.7969 0756604 269.5406 282.9842  1.00281517  5810"}}, "geometry": {"type": "Point", "coordinates": [-167.5823093391433, -33.707786495006744]}}, {"type": "Feature", "properties": {"norad_id": 42917, "name": "QZS-3 (QZSS/PRN 199)", "group": "gnss", "lat": -0.0003501134984086949, "lon": 166.44235990748945, "alt_km": 35790.552401631554, "timestamp": "2025-12-19T20:43:00.328516+00:00", "meta": {"OBJECT_NAME": "QZS-3 (QZSS/PRN 199)", "OBJECT_ID": "2017-048A", "EPOCH": "2025-12-19T07:01:11.307072", "MEAN_MOTION": 1.00266505, "ECCENTRICITY": 0.00017935, "INCLINATION": 0.0248, "RA_OF_ASC_NODE": 179.8453, "ARG_OF_PERICENTER": 99.2034, "MEAN_ANOMALY": 41.4174, "EPHEMERIS_TYPE": 0, "CLASSIFICATION_TYPE": "U", "NORAD_CAT_ID": 42917, "ELEMENT_SET_NO": 999, "REV_AT_EPOCH": 3045, "BSTAR": 0, "MEAN_MOTION_DOT": 0, "MEAN_MOTION_DDOT": 0}, "tle": {"line1": "1 42917U 17048A   25353.29249198  .00000000  00000+0  00000+0 0  9993", "line2": "2 42917   0.0248 179.8453 0001793  99.2034  41.4174  1.00266505 30451"}}, "geometry": {"type": "Point", "coordinates": [166.44235990748945, -0.0003501134984086949]}}, {"type": "Feature", "properties": {"norad_id": 42939, "name": "COSMOS 2522 (752)", "group": "gnss", "lat": -1.975825002549041, "lon": -162.97095110006205, "alt_km": 19141.951154586804, "timestamp": "2025-12-19T20:43:00.328528+00:00", "meta": {"OBJECT_NAME": "COSMOS 2522 (752)", "OBJECT_ID": "2017-055A", "EPOCH": "2025-12-18T22:15:40.453056", "MEAN_MOTION": 2.13102086, "ECCENTRICITY": 0.00063844, "INCLINATION": 64.0762, "RA_OF_ASC_NODE": 198.0182, "ARG_OF_PERICENTER": 224.0179, "MEAN_ANOMALY": 136.0111, "EPHEMERIS_TYPE": 0, "CLASSIFICATION_TYPE": "U", "NORAD_CAT_ID": 42939, "ELEMENT_SET_NO": 999, "REV_AT_EPOCH": 6413, "BSTAR": 0, "MEAN_MOTION_DOT": 1.07e-06, "MEAN_MOTION_DDOT": 0}, "tle": {"line1": "1 42939U 17055A   25352.92755154  .00000107  00000+0  00000+0 0  9996", "line2": "2 42939  64.0762 198.0182 0006384 224.0179 136.0111  2.13102086 64139"}}, "geometry": {"type": "Point", "coordinates": [-162.97095110006205, -1.975825002549041]}}, {"type": "Feature", "properties": {"norad_id": 42965, "name": "QZS-4 (QZSS/PRN 195)", "group": "gnss", "lat": -0.5521041998064546, "lon": 166.41612878265664, "alt_km": 35603.48865415035, "timestamp": "2025-12-19T20:43:00.328540+00:00", "meta": {"OBJECT_NAME": "QZS-4 (QZSS/PRN 195)", "OBJECT_ID": "2017-062A", "EPOCH": "2025-12-18T12:29:45.417120", "MEAN_MOTION": 1.00251537, "ECCENTRICITY": 0.07515287, "INCLINATION": 40.2229, "RA_OF_ASC_NODE": 345.7974, "ARG_OF_PERICENTER": 271.6693, "MEAN_ANOMALY": 153.2789, "EPHEMERIS_TYPE": 0, "CLASSIFICATION_TYPE": "U", "NORAD_CAT_ID": 42965, "ELEMENT_SET_NO": 999, "REV_AT_EPOCH": 2999, "BSTAR": 0, "MEAN_MOTION_DOT": -3.37e-06, "MEAN_MOTION_DDOT": 0}, "tle": {"line1": "1 42965U 17062A   25352.52066455 -.00000337  00000+0  00000+0 0  9994", "line2": "2 42965  40.2229 345.7974 0751528 271.6693 153.2789  1.00251537 29996"}}, "geometry": {"type": "Point", "coordinates": [166.41612878265664, -0.5521041998064546]}}, {"type": "Feature", "properties": {"norad_id": 43001, "name": "BEIDOU-3 M1 (C19)", "group": "gnss", "lat": 39.09382865396596, "lon": 101.4685058126937, "alt_km": 21530.833942050365, "timestamp": "2025-12-19T20:43:00.328567+00:00", "meta": {"OBJECT_NAME": "BEIDOU-3 M1 (C19)", "OBJECT_ID": "2017-069A", "EPOCH": "2025-12-18T04:17:57.582816", "MEAN_MOTION": 1.86231385, "ECCENTRICITY": 0.00094787, "INCLINATION": 56.5315, "RA_OF_ASC_NODE": 69.054, "ARG_OF_PERICENTER": 302.4467, "MEAN_ANOMALY": 57.4905, "EPHEMERIS_TYPE": 0, "CLASSIFICATION_TYPE": "U", "NORAD_CAT_ID": 43001, "ELEMENT_SET_NO": 999, "REV_AT_EPOCH": 5523, "BSTAR": 0, "MEAN_MOTION_DOT": -6.5e-07, "MEAN_MOTION_DDOT": 0}, "tle": {"line1": "1 43001U 17069A   25352.17913869 -.00000065  00000+0  00000+0 0  9992", "line2": "2 43001  56.5315  69.0540 0009478 302.4467  57.4905  1.86231385 55235"}}, "geometry": {"type": "Point", "coordinates": [101.4685058126937, 39.09382865396596]}}, {"type": "Feature", "properties": {"norad_id": 43002, "name": "BEIDOU-3 M2 (C20)", "group": "gnss", "lat": 56.554169950130465, "lon": 159.83985742113953, "alt_km": 21530.674128807546, "timestamp": "2025-12-19T20:43:00.328583+00:00", "meta": {"OBJECT_NAME": "BEIDOU-3 M2 (C20)", "OBJECT_ID": "2017-069B", "EPOCH": "2025-12-19T04:35:39.539904", "MEAN_MOTION": 1.86231009, "ECCENTRICITY": 0.00065189, "INCLINATION": 56.532, "RA_OF_ASC_NODE": 69.0565, "ARG_OF_PERICENTER": 330.2695, "MEAN_ANOMALY": 29.7276, "EPHEMERIS_TYPE": 0, "CLASSIFICATION_TYPE": "U", "NORAD_CAT_ID": 43002, "ELEMENT_SET_NO": 999, "REV_AT_EPOCH": 5524, "BSTAR": 0, "MEAN_MOTION_DOT": -5.5e-07, "MEAN_MOTION_DDOT": 0}, "tle": {"line1": "1 43002U 17069B   25353.19142986 -.00000055  00000+0  00000+0 0  9999", "line2": "2 43002  56.5320  69.0565 0006518 330.2695  29.7276  1.86231009 55240"}}, "geometry": {"type": "Point", "coordinates": [159.83985742113953, 56.554169950130465]}}, {"type": "Feature", "properties": {"norad_id": 43055, "name": "GSAT0215 (GALILEO 19)", "group": "gnss", "lat": -23.900781667275734, "lon": 64.44497091582356, "alt_km": 23227.995365305578, "timestamp": "2025-12-19T20:43:00.328597+00:00", "meta": {"OBJECT_NAME": "GSAT0215 (GALILEO 19)", "OBJECT_ID": "2017-079A", "EPOCH": "2025-12-18T08:21:56.206080", "MEAN_MOTION": 1.70474068, "ECCENTRICITY": 0.00012335, "INCLINATION": 55.1282, "RA_OF_ASC_NODE": 226.4832, "ARG_OF_PERICENTER": 345.8587, "MEAN_ANOMALY": 14.2435, "EPHEMERIS_TYPE": 0, "CLASSIFICATION_TYPE": "U", "NORAD_CAT_ID": 43055, "ELEMENT_SET_NO": 999, "REV_AT_EPOCH": 4990, "BSTAR": 0, "MEAN_MOTION_DOT": 6.2e-07, "MEAN_MOTION_DDOT": 0}, "tle": {"line1": "1 43055U 17079A   25352.34856720  .00000062  00000+0  00000+0 0  9999", "line2": "2 43055  55.1282 226.4832 0001233 345.8587  14.2435  1.70474068 49906"}}, "geometry": {"type": "Point", "coordinates": [64.44497091582356, -23.900781667275734]}}, {"type": "Feature", "properties": {"norad_id": 43056, "name": "GSAT0216 (GALILEO 20)", "group": "gnss", "lat": 24.84777406348066, "lon": -114.71699532862347, "alt_km": 23216.519952668605, "timestamp": "2025-12-19T20:43:00.328609+00:00", "meta": {"OBJECT_NAME": "GSAT0216 (GALILEO 20)", "OBJECT_ID": "2017-079B", "EPOCH": "2025-12-16T21:07:19.515072", "MEAN_MOTION": 1.70474167, "ECCENTRICITY": 0.00024195, "INCLINATION": 55.129, "RA_OF_ASC_NODE": 226.5236, "ARG_OF_PERICENTER": 322.2527, "MEAN_ANOMALY": 37.829, "EPHEMERIS_TYPE": 0, "CLASSIFICATION_TYPE": "U", "NORAD_CAT_ID": 43056, "ELEMENT_SET_NO": 999, "REV_AT_EPOCH": 4989, "BSTAR": 0, "MEAN_MOTION_DOT": 5.3e-07, "MEAN_MOTION_DDOT": 0}, "tle": {"line1": "1 43056U 17079B   25350.88008698  .00000053  00000+0  00000+0 0  9990", "line2": "2 43056  55.1290 226.5236 0002419 322.2527  37.8290  1.70474167 49893"}}, "geometry": {"type": "Point", "coordinates": [-114.71699532862347, 24.84777406348066]}}, {"type": "Feature", "properties": {"norad_id": 43057, "name": "GSAT0217 (GALILEO 21)", "group": "gnss", "lat": -52.528432836773064, "lon": 111.85111549831633, "alt_km": 23228.183937006987, "timestamp": "2025-12-19T20:43:00.328630+00:00", "meta": {"OBJECT_NAME": "GSAT0217 (GALILEO 21)", "OBJECT_ID": "2017-079C", "EPOCH": "2025-12-17T16:29:50.691264", "MEAN_MOTION": 1.70474088, "ECCENTRICITY": 0.00027909, "INCLINATION": 55.1268, "RA_OF_ASC_NODE": 226.4994, "ARG_OF_PERICENTER": 347.0606, "MEAN_ANOMALY": 13.035, "EPHEMERIS_TYPE": 0, "CLASSIFICATION_TYPE": "U", "NORAD_CAT_ID": 43057, "ELEMENT_SET_NO": 999, "REV_AT_EPOCH": 4989, "BSTAR": 0, "MEAN_MOTION_DOT": 5.8e-07, "MEAN_MOTION_DDOT": 0}, "tle": {"line1": "1 43057U 17079C   25351.68739226  .00000058  00000+0  00000+0 0  9993", "line2": "2 43057  55.1268 226.4994 0002790 347.0606  13.0350  1.70474088 49899"}}, "geometry": {"type": "Point", "coordinates": [111.85111549831633, -52.528432836773064]}}, {"type": "Feature", "properties": {"norad_id": 43058, "name": "GSAT0218 (GALILEO 22)", "group": "gnss", "lat": 45.09394595769355, "lon": 2.0857098636145843, "alt_km": 23225.501114376257, "timestamp": "2025-12-19T20:43:00.328643+00:00", "meta": {"OBJECT_NAME": "GSAT0218 (GALILEO 22)", "OBJECT_ID": "2017-079D", "EPOCH": "2025-12-17T21:46:41.589984", "MEAN_MOTION": 1.70474188, "ECCENTRICITY": 0.00029691, "INCLINATION": 55.1269, "RA_OF_ASC_NODE": 226.4911, "ARG_OF_PERICENTER": 304.5931, "MEAN_ANOMALY": 55.4827, "EPHEMERIS_TYPE": 0, "CLASSIFICATION_TYPE": "U", "NORAD_CAT_ID": 43058, "ELEMENT_SET_NO": 999, "REV_AT_EPOCH": 4992, "BSTAR": 0, "MEAN_MOTION_DOT": 5.9e-07, "MEAN_MOTION_DDOT": 0}, "tle": {"line1": "1 43058U 17079D   25351.90742581  .00000059  00000+0  00000+0 0  9998", "line2": "2 43058  55.1269 226.4911 0002969 304.5931  55.4827  1.70474188 49921"}}, "geometry": {"type": "Point", "coordinates": [2.0857098636145843, 45.09394595769355]}}]}